{
  "type": "FeatureCollection",
  "features": [
    {
      "type": "Feature",
      "properties": {
        "norad_id": 66355,
        "name": "STARLINK-35861",
        "group": "last-30-days",
        "lat": -53.13277727816511,
        "lon": -122.7275992452717,
        "alt_km": 371.3491184357381,
        "timestamp": "2025-12-02T10:50:46.051038+00:00",
        "meta_object_name": "STARLINK-35861",
        "meta_object_id": "2025-254H",
        "meta_epoch": "2025-12-02T04:00:03.998880",
        "meta_mean_motion": 15.68909634,
        "meta_eccentricity": 0.0001268,
        "meta_inclination": 53.1591,
        "meta_ra_of_asc_node": 327.444,
        "meta_arg_of_pericenter": 81.0939,
        "meta_mean_anomaly": 18.4911,
        "meta_ephemeris_type": 0,
        "meta_classification_type": "U",
        "meta_norad_cat_id": 66355,
        "meta_element_set_no": 999,
        "meta_rev_at_epoch": 522,
        "meta_bstar": -0.019536,
        "meta_mean_motion_dot": -0.0201644,
        "meta_mean_motion_ddot": 0,
        "tle_line1": "1 66355U 25254H   25336.16671295 -.02016440  00000+0 -19536-1 0  9992",
        "tle_line2": "2 66355  53.1591 327.4440 0001268  81.0939  18.4911 15.68909634  5226"
      },
      "geometry": {
        "type": "Point",
        "coordinates": [
          -122.7275992452717,
          -53.13277727816511
        ]
      }
    },
    {
      "type": "Feature",
      "properties": {
        "norad_id": 66356,
        "name": "STARLINK-35851",
        "group": "last-30-days",
        "lat": -53.05727813979219,
        "lon": -119.54901767846458,
        "alt_km": 371.3351975654796,
        "timestamp": "2025-12-02T10:50:46.051048+00:00",
        "meta_object_name": "STARLINK-35851",
        "meta_object_id": "2025-254J",
        "meta_epoch": "2025-12-02T04:00:03.998880",
        "meta_mean_motion": 15.68910575,
        "meta_eccentricity": 0.0001249,
        "meta_inclination": 53.159,
        "meta_ra_of_asc_node": 327.4394,
        "meta_arg_of_pericenter": 84.9467,
        "meta_mean_anomaly": 16.5534,
        "meta_ephemeris_type": 0,
        "meta_classification_type": "U",
        "meta_norad_cat_id": 66356,
        "meta_element_set_no": 999,
        "meta_rev_at_epoch": 522,
        "meta_bstar": -0.019535,
        "meta_mean_motion_dot": -0.02016344,
        "meta_mean_motion_ddot": 0,
        "tle_line1": "1 66356U 25254J   25336.16671295 -.02016344  00000+0 -19535-1 0  9995",
        "tle_line2": "2 66356  53.1590 327.4394 0001249  84.9467  16.5534 15.68910575  5227"
      },
      "geometry": {
        "type": "Point",
        "coordinates": [
          -119.54901767846458,
          -53.05727813979219
        ]
      }
    },
    {
      "type": "Feature",
      "properties": {
        "norad_id": 66357,
        "name": "STARLINK-35817",
        "group": "last-30-days",
        "lat": -52.89737370899302,
        "lon": -116.3862699529343,
        "alt_km": 371.3594837101746,
        "timestamp": "2025-12-02T10:50:46.051061+00:00",
        "meta_object_name": "STARLINK-35817",
        "meta_object_id": "2025-254K",
        "meta_epoch": "2025-12-02T04:00:03.998880",
        "meta_mean_motion": 15.68911207,
        "meta_eccentricity": 0.0001294,
        "meta_inclination": 53.1591,
        "meta_ra_of_asc_node": 327.4354,
        "meta_arg_of_pericenter": 84.3141,
        "meta_mean_anomaly": 19.1039,
        "meta_ephemeris_type": 0,
        "meta_classification_type": "U",
        "meta_norad_cat_id": 66357,
        "meta_element_set_no": 999,
        "meta_rev_at_epoch": 522,
        "meta_bstar": -0.019557,
        "meta_mean_motion_dot": -0.02018459,
        "meta_mean_motion_ddot": 0,
        "tle_line1": "1 66357U 25254K   25336.16671295 -.02018459  00000+0 -19557-1 0  9999",
        "tle_line2": "2 66357  53.1591 327.4354 0001294  84.3141  19.1039 15.68911207  5220"
      },
      "geometry": {
        "type": "Point",
        "coordinates": [
          -116.3862699529343,
          -52.89737370899302
        ]
      }
    },
    {
      "type": "Feature",
      "properties": {
        "norad_id": 66358,
        "name": "STARLINK-35807",
        "group": "last-30-days",
        "lat": -52.653604495945125,
        "lon": -113.25133740796784,
        "alt_km": 371.25901813954806,
        "timestamp": "2025-12-02T10:50:46.051072+00:00",
        "meta_object_name": "STARLINK-35807",
        "meta_object_id": "2025-254L",
        "meta_epoch": "2025-12-02T04:00:03.998880",
        "meta_mean_motion": 15.68914074,
        "meta_eccentricity": 0.0001141,
        "meta_inclination": 53.159,
        "meta_ra_of_asc_node": 327.431,
        "meta_arg_of_pericenter": 92.0402,
        "meta_mean_anomaly": 13.2932,
        "meta_ephemeris_type": 0,
        "meta_classification_type": "U",
        "meta_norad_cat_id": 66358,
        "meta_element_set_no": 999,
        "meta_rev_at_epoch": 522,
        "meta_bstar": -0.019604,
        "meta_mean_motion_dot": -0.02022774,
        "meta_mean_motion_ddot": 0,
        "tle_line1": "1 66358U 25254L   25336.16671295 -.02022774  00000+0 -19604-1 0  9998",
        "tle_line2": "2 66358  53.1590 327.4310 0001141  92.0402  13.2932 15.68914074  5221"
      },
      "geometry": {
        "type": "Point",
        "coordinates": [
          -113.25133740796784,
          -52.653604495945125
        ]
      }
    },
    {
      "type": "Feature",
      "properties": {
        "norad_id": 66359,
        "name": "STARLINK-35805",
        "group": "last-30-days",
        "lat": -52.32887314236023,
        "lon": -110.1635528092893,
        "alt_km": 371.33658985758575,
        "timestamp": "2025-12-02T10:50:46.051082+00:00",
        "meta_object_name": "STARLINK-35805",
        "meta_object_id": "2025-254M",
        "meta_epoch": "2025-12-02T04:00:03.998880",
        "meta_mean_motion": 15.68916124,
        "meta_eccentricity": 0.0001312,
        "meta_inclination": 53.159,
        "meta_ra_of_asc_node": 327.4274,
        "meta_arg_of_pericenter": 82.257,
        "meta_mean_anomaly": 24.9916,
        "meta_ephemeris_type": 0,
        "meta_classification_type": "U",
        "meta_norad_cat_id": 66359,
        "meta_element_set_no": 999,
        "meta_rev_at_epoch": 519,
        "meta_bstar": -0.01962,
        "meta_mean_motion_dot": -0.02024551,
        "meta_mean_motion_ddot": 0,
        "tle_line1": "1 66359U 25254M   25336.16671295 -.02024551  00000+0 -19620-1 0  9992",
        "tle_line2": "2 66359  53.1590 327.4274 0001312  82.2570  24.9916 15.68916124  5193"
      },
      "geometry": {
        "type": "Point",
        "coordinates": [
          -110.1635528092893,
          -52.32887314236023
        ]
      }
    },
    {
      "type": "Feature",
      "properties": {
        "norad_id": 66360,
        "name": "STARLINK-35823",
        "group": "last-30-days",
        "lat": -51.44159933937229,
        "lon": -104.13793339160696,
        "alt_km": 371.3432454677577,
        "timestamp": "2025-12-02T10:50:46.051092+00:00",
        "meta_object_name": "STARLINK-35823",
        "meta_object_id": "2025-254N",
        "meta_epoch": "2025-12-02T04:00:03.998880",
        "meta_mean_motion": 15.68907826,
        "meta_eccentricity": 0.0001351,
        "meta_inclination": 53.159,
        "meta_ra_of_asc_node": 327.4186,
        "meta_arg_of_pericenter": 85.0514,
        "meta_mean_anomaly": 26.0385,
        "meta_ephemeris_type": 0,
        "meta_classification_type": "U",
        "meta_norad_cat_id": 66360,
        "meta_element_set_no": 999,
        "meta_rev_at_epoch": 522,
        "meta_bstar": -0.019546,
        "meta_mean_motion_dot": -0.02017279,
        "meta_mean_motion_ddot": 0,
        "tle_line1": "1 66360U 25254N   25336.16671295 -.02017279  00000+0 -19546-1 0  9990",
        "tle_line2": "2 66360  53.1590 327.4186 0001351  85.0514  26.0385 15.68907826  5225"
      },
      "geometry": {
        "type": "Point",
        "coordinates": [
          -104.13793339160696,
          -51.44159933937229
        ]
      }
    },
    {
      "type": "Feature",
      "properties": {
        "norad_id": 66361,
        "name": "STARLINK-35813",
        "group": "last-30-days",
        "lat": -51.923957242722494,
        "lon": -107.12095883490527,
        "alt_km": 371.34697664188116,
        "timestamp": "2025-12-02T10:50:46.051102+00:00",
        "meta_object_name": "STARLINK-35813",
        "meta_object_id": "2025-254P",
        "meta_epoch": "2025-12-02T04:00:03.998880",
        "meta_mean_motion": 15.6891732,
        "meta_eccentricity": 0.0001345,
        "meta_inclination": 53.1591,
        "meta_ra_of_asc_node": 327.4232,
        "meta_arg_of_pericenter": 83.6947,
        "meta_mean_anomaly": 25.4711,
        "meta_ephemeris_type": 0,
        "meta_classification_type": "U",
        "meta_norad_cat_id": 66361,
        "meta_element_set_no": 999,
        "meta_rev_at_epoch": 522,
        "meta_bstar": -0.019644,
        "meta_mean_motion_dot": -0.02026829,
        "meta_mean_motion_ddot": 0,
        "tle_line1": "1 66361U 25254P   25336.16671295 -.02026829  00000+0 -19644-1 0  9991",
        "tle_line2": "2 66361  53.1591 327.4232 0001345  83.6947  25.4711 15.68917320  5222"
      },
      "geometry": {
        "type": "Point",
        "coordinates": [
          -107.12095883490527,
          -51.923957242722494
        ]
      }
    }
  ]
}